satname,norad_id,inclination_deg,eccentricity,mean_motion_rev_per_day,perigee_km,apogee_km,l1,l2
STARLINK-1008,44714,53.1534,0.0002765,15.46930636,423.82991706995927,427.5924451141036,1 44714U 19074B   26143.85005199  .00012707  00000+0  25634-3 0  9993,2 44714  53.1534 184.9726 0002765  36.4032 323.7164 15.46930636360444
STARLINK-1012,44718,53.1574,0.000255,15.47141878,423.3570259528242,426.8266726659713,1 44718U 19074F   26143.85041788  .00013458  00000+0  26901-3 0  9993,2 44718  53.1574 185.2760 0002550  30.1882 329.9273 15.47141878360431
STARLINK-1017,44723,53.0466,0.0005127,15.30133498,471.89982418285217,478.92745500869387,1 44723U 19074L   26143.53136192  .00024025  00000+0  82206-3 0  9990,2 44723  53.0466 184.4345 0005127 347.3741  12.7129 15.30133498360401
STARLINK-1020,44725,53.1576,0.0003624,15.52123333,408.0674456946481,412.98786983859736,1 44725U 19074N   26143.60006102  .00046689  00000+0  76242-3 0  9990,2 44725  53.1576 211.0840 0003624  13.2476 346.8629 15.52123333360033
STARLINK-1036,44741,53.0424,0.0002826,15.67425762,364.36533241774487,368.177271990151,1 44741U 19074AE  26143.81478262  .00036665  00000+0  33602-3 0  9997,2 44741  53.0424 180.9956 0002826 326.0153  34.0681 15.67425762360473
STARLINK-1039,44744,53.0574,0.0002773,15.27445517,481.5490974882041,485.35453464559487,1 44744U 19074AH  26143.46811212  .00023474  00000+0  87242-3 0  9990,2 44744  53.0574 229.8007 0002773   3.3016 356.8000 15.27445517359762
STARLINK-1042,44747,53.0416,0.0003541,15.53308223,404.6722357318249,409.4775227847167,1 44747U 19074AL  26143.88048804  .00020412  00000+0  32459-3 0  9997,2 44747  53.0416  92.9851 0003541  59.8134 300.3226 15.53308223361743
STARLINK-1043,44748,53.0486,0.0001072,15.61254325,383.3078930931797,384.7577022978048,1 44748U 19074AM  26143.85209889  .00028912  00000+0  33955-3 0  9992,2 44748  53.0486 190.3557 0001072  66.9036 293.2089 15.61254325360359
STARLINK-1046,44751,53.0473,0.0006863,15.53124372,402.95327631878536,412.26739311041365,1 44751U 19074AQ  26143.68063519  .00046032  00000+0  72476-3 0  9999,2 44751  53.0473 211.9182 0006863  14.5365 345.5841 15.53124372360031
STARLINK-1047,44752,53.0681,0.0003577,15.34065608,461.24998010300897,466.1446283642572,1 44752U 19074AR  26143.84121765  .00009518  00000+0  29554-3 0  9993,2 44752  53.0681 154.4846 0003577  86.1939 273.9471 15.34065608360872
STARLINK-1048,44753,53.0446,0.0007189,15.65604988,366.64706949106676,376.3516966826701,1 44753U 19074AS  26143.34340907  .00037618  00000+0  37034-3 0  9994,2 44753  53.0446 165.1121 0007189   6.1421 353.9681 15.65604988360650
STARLINK-1063,44768,53.156,0.000135,15.46897758,424.88905491328205,426.726119951888,1 44768U 19074BH  26143.73335669  .00023715  00000+0  47092-3 0  9990,2 44768  53.1560 226.5456 0001350  22.5728 337.5339 15.46897758359860
STARLINK-1067,44771,53.0423,0.0006687,15.72199675,348.11080532784126,357.11250858165295,1 44771U 19074BL  26143.85297402  .00054558  00000+0  40706-3 0  9993,2 44771  53.0423 195.2236 0006687 335.6106  24.4594 15.72199675360280
STARLINK-1068,44772,53.0426,0.0002442,15.72952441,348.82094360975316,352.1071923713607,1 44772U 19074BM  26143.86456684  .00052487  00000+0  37995-3 0  9999,2 44772  53.0426 168.8979 0002442  62.1294 297.9971 15.72952441360643
STARLINK-1114,44927,53.0427,9.04e-05,15.62984127,378.43176212560957,379.65346019930803,1 44927U 20001P   26143.85031684  .00077807  00000+0  83987-3 0  9996,2 44927  53.0427 324.9292 0000904 349.7483  10.3512 15.62984127351805
STARLINK-1123,44930,53.1462,0.0002665,15.55419593,399.12657629604564,402.73982071184673,1 44930U 20001S   26143.81648807  .00055094  00000+0  79630-3 0  9991,2 44930  53.1462 351.0826 0002665 226.1146 133.9646 15.55419593351445
STARLINK-1094,44941,53.1544,0.0002473,15.52148054,408.7767567709143,412.13439465886313,1 44941U 20001AD  26143.87159819  .00054849  00000+0  89272-3 0  9999,2 44941  53.1544 325.4589 0002473 267.6389  92.4338 15.52148054351811
STARLINK-1122,44949,53.1573,0.0002031,15.51884926,409.8439895194597,412.60182751429875,1 44949U 20001AM  26143.81496713  .00055155  00000+0  90615-3 0  9992,2 44949  53.1573 326.2980 0002031 265.5785  94.4993 15.51884926351792
STARLINK-1080,44961,53.0452,0.0001039,15.62919481,378.5268480439245,379.93102868591814,1 44961U 20001AZ  26143.91668980  .01133695  00000+0  11113-1 0  9995,2 44961  53.0452 285.2374 0001039  74.3843 126.0476 15.62919481  5937
STARLINK-1090,44968,53.1504,0.0001126,15.48358968,420.76061418264635,422.2918983479567,1 44968U 20001BG  26143.83101885  .00050160  00000+0  93468-3 0  9998,2 44968  53.1504 313.5639 0001126 273.1285  86.9594 15.48358968351972
STARLINK-1132,45044,53.1516,0.000152,15.53328861,405.98343579473476,408.0461219355102,1 45044U 20006A   26143.66180720  .00053848  00000+0  84025-3 0  9990,2 45044  53.1516 255.9566 0001520 338.3871  21.7075 15.53328861348547
STARLINK-1131,45047,53.1579,0.0002416,15.5023369,414.40171697101414,417.6846648392602,1 45047U 20006D   26143.77382963  .00052091  00000+0  90831-3 0  9999,2 45047  53.1579 287.8980 0002416 317.5841  42.4981 15.50233690348104
STARLINK-1134,45048,53.0268,0.0006859,15.54457295,399.07898175731225,408.3823478198683,1 45048U 20006E   26143.67602578  .00082071  00000+0  12200-2 0  9990,2 45048  53.0268 238.9977 0006859  17.6764 342.4483 15.54457295348764
STARLINK-1156,45054,53.1579,0.0002077,15.33661767,463.47700592680303,466.31960279223495,1 45054U 20006L   26143.68828593  .00035152  00000+0  10713-2 0  9990,2 45054  53.1579 292.0819 0002077 299.1740  60.9054 15.33661767348036
STARLINK-1166,45060,53.0464,0.0002812,15.56762499,395.12891850739015,398.939274732129,1 45060U 20006S   26143.82703015  .00063540  00000+0  87190-3 0  9990,2 45060  53.0464 271.4450 0002812 313.9636  46.1143 15.56762499348329
STARLINK-1169,45061,53.1559,0.0003182,15.36667881,453.79629824627864,458.14552452108364,1 45061U 20006T   26143.81891142  .00025785  00000+0  71784-3 0  9990,2 45061  53.1559 290.4016 0003182 256.7464 103.3185 15.36667881348070
STARLINK-1171,45062,53.0415,0.0001799,15.72175555,351.4696239023069,353.89137203807695,1 45062U 20006U   26143.73066770  .00050559  00000+0  37851-3 0  9997,2 45062  53.0415 239.4918 0001799 293.9190  66.1638 15.72175555348763
STARLINK-1133,45064,53.1568,0.0002898,15.33603337,463.0889534967373,467.0552775000797,1 45064U 20006W   26143.72434903  .00025289  00000+0  77629-3 0  9994,2 45064  53.1568 268.6911 0002898 317.5001  42.5776 15.33603337348376
STARLINK-1167,45071,53.1564,0.0002626,15.35884714,456.4986658173784,460.08915933266235,1 45071U 20006AD  26143.81507775  .00029548  00000+0  84150-3 0  9999,2 45071  53.1564 267.5856 0002626 254.7535 105.3178 15.35884714348397
STARLINK-1168,45072,53.1566,0.0004394,15.29827507,473.31564034228995,479.3393437378945,1 45072U 20006AE  26143.70589125 -.02847735  00000+0 -10982+0 0  9995,2 45072  53.1566 268.9938 0004394  15.2238 344.8894 15.29827507348362
STARLINK-1172,45074,53.1538,0.000263,15.36887497,453.5226495301604,457.11704783256573,1 45074U 20006AG  26143.78246056  .00037052  00000+0  10181-2 0  9991,2 45074  53.1538 267.1842 0002630 270.3516  89.7187 15.36887497348397
STARLINK-1153,45080,53.1586,0.0003317,15.35912827,455.94287420404726,460.47810712935643,1 45080U 20006AN  26143.66834751  .00035326  00000+0  10022-2 0  9996,2 45080  53.1586 268.1870 0003317 271.3110  88.7514 15.35912827348379
STARLINK-1151,45081,53.0479,0.0003162,15.7540801,341.3450198875971,345.59576440239016,1 45081U 20006AP  26143.60460469  .00061895  00000+0  40190-3 0  9992,2 45081  53.0479 229.1833 0003162 311.9742  48.1007 15.75408010348898
STARLINK-1185,45087,53.1589,0.0003893,15.44143513,431.2439284549473,436.5477772341719,1 45087U 20006AV  26143.76196233  .00039671  00000+0  85721-3 0  9996,2 45087  53.1589 248.7645 0003893 327.0297  33.0467 15.44143513348656
STARLINK-1183,45088,53.1572,0.0002938,15.33554048,463.20816566045505,467.22932149538155,1 45088U 20006AW  26143.81330154  .00018562  00000+0  57420-3 0  9996,2 45088  53.1572 253.0788 0002938 325.2533  34.8277 15.33554048348596
STARLINK-1152,45096,53.0332,0.0003842,15.4692111,423.12506410072547,428.3531625061878,1 45096U 20006BE  26143.60648690  .00040267  00000+0  79113-3 0  9999,2 45096  53.0332 210.6932 0003842  18.9837 341.1312 15.46921110349155
STARLINK-1184,45098,53.0523,0.000363,15.135604,522.8465595116013,527.8584929076287,1 45098U 20006BG  26143.75463267  .00016758  00000+0  93809-3 0  9998,2 45098  53.0523 265.4747 0003630   2.8257 357.2754 15.13560400348392
STARLINK-1193,45100,53.0467,0.0003681,15.66250374,367.1612360152949,372.12895319334257,1 45100U 20006BJ  26143.52965852  .00037291  00000+0  35815-3 0  9992,2 45100  53.0467 224.9999 0003681 281.8933  78.1669 15.66250374348947
STARLINK-1143,45179,53.0372,0.000338,15.83445716,318.44059337339695,322.9690104314823,1 45179U 20012B   26143.91668980  .00195081  00000+0  85993-3 0  9994,2 45179  53.0372 316.3812 0003380 308.0481 331.2598 15.83445716  5943
STARLINK-1202,45183,53.1559,0.0002922,15.33287038,464.0133379147301,468.01305929079444,1 45183U 20012F   26143.16963326  .00034494  00000+0  10640-2 0  9994,2 45183  53.1559  52.8189 0002922 111.3707 248.7607 15.33287038346365
STARLINK-1216,45185,53.1574,0.0003042,15.33592032,463.02403120035615,467.1874600868059,1 45185U 20012H   26143.73822118  .00031451  00000+0  96225-3 0  9996,2 45185  53.1574  50.0526 0003042 113.1794 246.9529 15.33592032346398
STARLINK-1225,45187,53.1577,0.0002642,15.33495612,463.58453239792016,467.20065343481656,1 45187U 20012K   26143.73648477  .00012453  00000+0  38998-3 0  9996,2 45187  53.1577  50.5184 0002642 105.3834 254.7460 15.33495612346433
STARLINK-1230,45189,53.1561,0.0002946,15.33499627,463.3645474852856,467.39674808335985,1 45189U 20012M   26143.87700265  .00030502  00000+0  93637-3 0  9993,2 45189  53.1561  49.9238 0002946 114.4155 245.7154 15.33499627343688
